NORAD_CAT_ID,OBJECT_NAME,OBJECT_TYPE,EPOCH,MEAN_MOTION,ECCENTRICITY,INCLINATION,RA_OF_ASC_NODE,ARG_OF_PERICENTER,MEAN_ANOMALY,BSTAR,MEAN_MOTION_DOT,MEAN_MOTION_DDOT,TLE_LINE0,TLE_LINE1,TLE_LINE2,SEMIMAJOR_AXIS,PERIOD,APOGEE,PERIGEE,DECAYED
52853.0,STARLINK-4189,PAYLOAD,2023-06-08 23:07:42,15.08840038,0.0001119,53.2155,214.4815,80.172,279.9398,6.1952e-05,6.98e-06,0.0,0 STARLINK-4189,1 52853U 22062Z   23159.96368984  .00000698  00000-0  61952-4 0  9998,2 52853  53.2155 214.4815 0001119  80.1720 279.9398 15.08840038 54734,6917.88,95.438,540.519,538.971,0.0
52853.0,STARLINK-4189,PAYLOAD,2023-06-09 13:26:10,15.08842751,0.0001067,53.2152,211.8039,90.4849,269.6265,3.9087e-05,3.34e-06,0.0,0 STARLINK-4189,1 52853U 22062Z   23160.55984782  .00000334  00000-0  39087-4 0  9996,2 52853  53.2152 211.8039 0001067  90.4849 269.6265 15.08842751 54337,6917.872,95.437,540.475,538.999,0.0
52853.0,STARLINK-4189,PAYLOAD,2023-06-10 03:44:39,15.08833152,0.0001082,53.2151,209.1266,99.3408,260.7707,-1.0521e-05,-4.55e-06,0.0,0 STARLINK-4189,1 52853U 22062Z   23161.15601622 -.00000455  00000-0 -10521-4 0  9990,2 52853  53.2151 209.1266 0001082  99.3408 260.7707 15.08833152 54916,6917.901,95.438,540.515,539.018,0.0
52853.0,STARLINK-4189,PAYLOAD,2023-06-10 10:06:12,15.08835539,0.0001116,53.2147,207.9381,87.5001,272.6118,1.6472e-05,-2.6e-07,0.0,0 STARLINK-4189,1 52853U 22062Z   23161.42097494 -.00000026  00000-0  16472-4 0  9990,2 52853  53.2147 207.9381 0001116  87.5001 272.6118 15.08835539 54460,6917.894,95.438,540.531,538.987,0.0
52853.0,STARLINK-4189,PAYLOAD,2023-06-10 19:38:31,15.08837022,9.97e-05,53.2145,206.1531,77.7808,282.3296,1.5933e-05,-3.4e-07,0.0,0 STARLINK-4189,1 52853U 22062Z   23161.81841483 -.00000034  00000-0  15933-4 0  9998,2 52853  53.2145 206.1531 0000997  77.7808 282.3296 15.08837022 54529,6917.889,95.438,540.444,539.065,0.0
52853.0,STARLINK-4189,PAYLOAD,2023-06-11 11:32:22,15.08839576,0.0001053,53.2156,203.1817,89.1124,270.9989,5.7699e-05,6.31e-06,0.0,0 STARLINK-4189,1 52853U 22062Z   23162.48081320  .00000631  00000-0  57699-4 0  9995,2 52853  53.2156 203.1817 0001053  89.1124 270.9989 15.08839576 55111,6917.882,95.438,540.475,539.018,0.0
52853.0,STARLINK-4189,PAYLOAD,2023-06-11 19:29:18,15.08836601,0.0001017,53.2154,201.6948,88.4747,271.6361,5.2001e-05,5.4e-06,0.0,0 STARLINK-4189,1 52853U 22062Z   23162.81201569  .00000540  00000-0  52001-4 0  9992,2 52853  53.2154 201.6948 0001017  88.4747 271.6361 15.08836601 54678,6917.891,95.438,540.459,539.052,0.0
52853.0,STARLINK-4189,PAYLOAD,2023-06-12 11:23:09,15.08838211,9.98e-05,53.2155,198.721,86.5176,273.593,7.5482e-05,9.14e-06,0.0,0 STARLINK-4189,1 52853U 22062Z   23163.47441528  .00000914  00000-0  75482-4 0  9999,2 52853  53.2155 198.7210 0000998  86.5176 273.5930 15.08838211 54772,6917.886,95.438,540.441,539.06,0.0
52853.0,STARLINK-4189,PAYLOAD,2023-06-12 19:20:05,15.0883524,0.0001036,53.2155,197.2344,89.3451,270.7659,3.1337e-05,2.11e-06,0.0,0 STARLINK-4189,1 52853U 22062Z   23163.80561932  .00000211  00000-0  31337-4 0  9999,2 52853  53.2155 197.2344 0001036  89.3451 270.7659 15.08835240 55312,6917.895,95.438,540.477,539.043,0.0
52853.0,STARLINK-4189,PAYLOAD,2023-06-12 22:30:51,15.08833783,0.000104,53.2155,196.6396,90.4302,269.6809,3.6593e-05,2.95e-06,0.0,0 STARLINK-4189,1 52853U 22062Z   23163.93810048  .00000295  00000-0  36593-4 0  9999,2 52853  53.2155 196.6396 0001040  90.4302 269.6809 15.08833783 54846,6917.899,95.438,540.484,539.045,0.0
52853.0,STARLINK-4189,PAYLOAD,2023-06-13 01:41:38,15.08834522,0.0001045,53.2156,196.0447,90.164,269.9472,3.9932e-05,3.48e-06,0.0,0 STARLINK-4189,1 52853U 22062Z   23164.07058032  .00000348  00000-0  39932-4 0  9991,2 52853  53.2156 196.0447 0001045  90.1640 269.9472 15.08834522 54868,6917.897,95.438,540.485,539.039,0.0
52853.0,STARLINK-4189,PAYLOAD,2023-06-14 01:32:25,15.08836362,0.0001096,53.2155,191.5834,88.4497,271.662,2.1986e-05,6.2e-07,0.0,0 STARLINK-4189,1 52853U 22062Z   23165.06418162  .00000062  00000-0  21986-4 0  9998,2 52853  53.2155 191.5834 0001096  88.4497 271.6620 15.08836362 55504,6917.892,95.438,540.515,538.998,0.0
52853.0,STARLINK-4189,PAYLOAD,2023-06-14 19:01:39,15.08838825,0.0001092,53.2155,188.3125,87.7558,272.3559,4.1577e-05,3.74e-06,0.0,0 STARLINK-4189,1 52853U 22062Z   23165.79282038  .00000374  00000-0  41577-4 0  9993,2 52853  53.2155 188.3125 0001092  87.7558 272.3559 15.08838825 55120,6917.884,95.438,540.504,538.994,0.0
52853.0,STARLINK-4189,PAYLOAD,2023-06-15 07:44:44,15.08840307,0.000101,53.2152,185.9334,87.3127,272.7981,8.8305e-05,1.118e-05,0.0,0 STARLINK-4189,1 52853U 22062Z   23166.32273807  .00001118  00000-0  88305-4 0  9994,2 52853  53.2152 185.9334 0001010  87.3127 272.7981 15.08840307 55693,6917.879,95.438,540.443,539.046,0.0
52853.0,STARLINK-4189,PAYLOAD,2023-06-16 10:46:17,15.08844389,9.98e-05,53.2154,180.8782,86.4779,273.6328,8.0916e-05,1e-05,0.0,0 STARLINK-4189,1 52853U 22062Z   23167.44881489  .00001000  00000-0  80916-4 0  9999,2 52853  53.2154 180.8782 0000998  86.4779 273.6328 15.08844389 55861,6917.867,95.437,540.422,539.042,0.0
52853.0,STARLINK-4189,PAYLOAD,2023-06-17 01:04:46,15.08840111,0.0001026,53.2151,178.2016,87.2043,272.9067,-4.5291e-06,-3.6e-06,0.0,0 STARLINK-4189,1 52853U 22062Z   23168.04497928 -.00000360  00000-0 -45291-5 0  9995,2 52853  53.2151 178.2016 0001026  87.2043 272.9067 15.08840111 55956,6917.88,95.438,540.455,539.035,0.0
52853.0,STARLINK-4189,PAYLOAD,2023-06-17 07:26:19,15.08830242,7.09e-05,53.2152,177.0122,77.1428,282.9643,-8.6688e-05,-1.667e-05,0.0,0 STARLINK-4189,1 52853U 22062Z   23168.30994729 -.00001667  00000-0 -86688-4 0  9990,2 52853  53.2152 177.0122 0000709  77.1428 282.9643 15.08830242 55993,6917.91,95.438,540.266,539.285,0.0
52853.0,STARLINK-4189,PAYLOAD,2023-06-17 10:37:05,15.08835982,9.48e-05,53.2151,176.4169,85.1268,274.9832,-3.3518e-05,-8.21e-06,0.0,0 STARLINK-4189,1 52853U 22062Z   23168.44242224 -.00000821  00000-0 -33518-4 0  9996,2 52853  53.2151 176.4169 0000948  85.1268 274.9832 15.08835982 55528,6917.893,95.438,540.413,539.102,0.0
52853.0,STARLINK-4189,PAYLOAD,2023-06-17 16:58:37,15.08838081,9.6e-05,53.2155,175.2275,85.3409,274.7693,-4.6038e-06,-3.61e-06,0.0,0 STARLINK-4189,1 52853U 22062Z   23168.70738010 -.00000361  00000-0 -46038-5 0  9999,2 52853  53.2155 175.2275 0000960  85.3409 274.7693 15.08838081 56055,6917.886,95.438,540.415,539.087,0.0
52853.0,STARLINK-4189,PAYLOAD,2023-06-18 04:06:19,15.08835767,0.0001042,53.2156,173.1461,86.3018,273.8094,-2.4589e-05,-6.79e-06,0.0,0 STARLINK-4189,1 52853U 22062Z   23169.17106335 -.00000679  00000-0 -24589-4 0  9998,2 52853  53.2156 173.1461 0001042  86.3018 273.8094 15.08835767 55635,6917.893,95.438,540.479,539.037,0.0
52853.0,STARLINK-4189,PAYLOAD,2023-06-18 16:49:24,15.08837335,0.0001001,53.2166,170.767,82.5543,277.5563,-2.0499e-05,-6.14e-06,0.0,0 STARLINK-4189,1 52853U 22062Z   23169.70098296 -.00000614  00000-0 -20499-4 0  9998,2 52853  53.2166 170.7670 0001001  82.5543 277.5563 15.08837335 55711,6917.889,95.438,540.446,539.061,0.0
52853.0,STARLINK-4189,PAYLOAD,2023-06-19 00:46:20,15.08833822,0.0001001,53.2158,169.2805,86.3313,273.7793,3.1414e-05,2.12e-06,0.0,0 STARLINK-4189,1 52853U 22062Z   23170.03218466  .00000212  00000-0  31414-4 0  9990,2 52853  53.2158 169.2805 0001001  86.3313 273.7793 15.08833822 56252,6917.899,95.438,540.457,539.072,0.0
52853.0,STARLINK-4189,PAYLOAD,2023-06-19 07:07:53,15.08837397,0.0001037,53.216,168.0912,90.6,269.5111,5.6148e-05,6.06e-06,0.0,0 STARLINK-4189,1 52853U 22062Z   23170.29714239  .00000606  00000-0  56148-4 0  9995,2 52853  53.2160 168.0912 0001037  90.6000 269.5111 15.08837397 55809,6917.888,95.438,540.471,539.036,0.0
52853.0,STARLINK-4189,PAYLOAD,2023-06-19 16:40:12,15.08831654,0.0001016,53.2157,166.3074,83.1201,276.9907,9.8877e-05,1.286e-05,0.0,0 STARLINK-4189,1 52853U 22062Z   23170.69458610  .00001286  00000-0  98877-4 0  9997,2 52853  53.2157 166.3074 0001016  83.1201 276.9907 15.08831654 55863,6917.906,95.438,540.474,539.068,0.0
52853.0,STARLINK-4189,PAYLOAD,2023-06-20 00:37:07,15.08835622,0.0001028,53.2157,164.8209,91.0679,269.0431,5.7413e-05,6.26e-06,0.0,0 STARLINK-4189,1 52853U 22062Z   23171.02578551  .00000626  00000-0  57413-4 0  9990,2 52853  53.2157 164.8209 0001028  91.0679 269.0431 15.08835622 55916,6917.894,95.438,540.47,539.048,0.0
52853.0,STARLINK-4189,PAYLOAD,2023-06-21 08:24:50,15.08840333,0.0001056,53.2158,158.8739,92.9931,267.1182,5.3198e-05,5.59e-06,0.0,0 STARLINK-4189,1 52853U 22062Z   23172.35058526  .00000559  00000-0  53198-4 0  9993,2 52853  53.2158 158.8739 0001056  92.9931 267.1182 15.08840333 56604,6917.879,95.438,540.475,539.014,0.0
52853.0,STARLINK-4189,PAYLOAD,2023-06-21 16:21:46,15.08836244,0.0001056,53.2156,157.3863,85.259,274.8523,1.9493e-05,2.2e-07,0.0,0 STARLINK-4189,1 52853U 22062Z   23172.68178929  .00000022  00000-0  19493-4 0  9994,2 52853  53.2156 157.3863 0001056  85.2590 274.8523 15.08836244 56655,6917.892,95.438,540.487,539.026,0.0
52853.0,STARLINK-4189,PAYLOAD,2023-06-23 08:06:24,15.08845361,0.0001132,53.2155,149.9513,88.6478,271.4643,8.1107e-05,1.003e-05,0.0,0 STARLINK-4189,1 52853U 22062Z   23174.33778246  .00001003  00000-0  81107-4 0  9997,2 52853  53.2155 149.9513 0001132  88.6478 271.4643 15.08845361 56904,6917.864,95.437,540.512,538.946,0.0
52853.0,STARLINK-4189,PAYLOAD,2023-06-24 07:57:11,15.08839907,0.0001252,53.2163,145.4902,95.9454,264.1681,5.2778e-05,5.52e-06,0.0,0 STARLINK-4189,1 52853U 22062Z   23175.33138684  .00000552  00000-0  52778-4 0  9994,2 52853  53.2163 145.4902 0001252  95.9454 264.1681 15.08839907 57051,6917.881,95.438,540.612,538.88,0.0
52853.0,STARLINK-4189,PAYLOAD,2023-06-25 14:09:31,15.08840325,0.0001136,53.2156,139.8424,86.4784,273.6338,-3.4612e-05,-8.39e-06,0.0,0 STARLINK-4189,1 52853U 22062Z   23176.58994968 -.00000839  00000-0 -34612-4 0  9994,2 52853  53.2156 139.8424 0001136  86.4784 273.6338 15.08840325 57242,6917.879,95.438,540.53,538.959,0.0
